NORAD_CAT_ID,OBJECT_NAME,OBJECT_TYPE,EPOCH,MEAN_MOTION,ECCENTRICITY,INCLINATION,RA_OF_ASC_NODE,ARG_OF_PERICENTER,MEAN_ANOMALY,BSTAR,MEAN_MOTION_DOT,MEAN_MOTION_DDOT,TLE_LINE0,TLE_LINE1,TLE_LINE2,SEMIMAJOR_AXIS,PERIOD,APOGEE,PERIGEE,DECAYED
55668.0,STARLINK-5455,PAYLOAD,2024-02-23 06:02:39,14.9834195,0.0002944,69.9988,244.0287,267.0188,93.0634,-0.00024456,-3.011e-05,0.0,0 STARLINK-5455,1 55668U 23021AS  24054.25185059 -.00003011  00000-0 -24456-3 0  9999,2 55668  69.9988 244.0287 0002944 267.0188  93.0634 14.98341950 57325,6950.156,96.106,574.067,569.975,0.0
55668.0,STARLINK-5455,PAYLOAD,2024-02-23 14:03:20,14.98329537,0.0003008,69.9987,243.187,269.8482,90.2332,3.4905e-06,-5.1e-07,0.0,0 STARLINK-5455,1 55668U 23021AS  24054.58565328 -.00000051  00000-0  34905-5 0  9998,2 55668  69.9987 243.1870 0003008 269.8482  90.2332 14.98329537 57670,6950.194,96.107,574.15,569.969,0.0
55668.0,STARLINK-5455,PAYLOAD,2024-02-23 20:27:52,14.98329667,0.0003029,69.9988,242.5136,269.5848,90.4964,-3.8142e-07,-9.8e-07,0.0,0 STARLINK-5455,1 55668U 23021AS  24054.85269323 -.00000098  00000-0 -38142-6 0  9994,2 55668  69.9988 242.5136 0003029 269.5848  90.4964 14.98329667 57414,6950.194,96.107,574.164,569.954,0.0
55668.0,STARLINK-5455,PAYLOAD,2024-02-23 22:04:00,14.98329413,0.000303,69.9987,242.3453,269.5785,90.5027,-3.2356e-06,-1.32e-06,0.0,0 STARLINK-5455,1 55668U 23021AS  24054.91945344 -.00000132  00000-0 -32356-5 0  9994,2 55668  69.9987 242.3453 0003030 269.5785  90.5027 14.98329413 57729,6950.195,96.107,574.166,569.954,0.0
55668.0,STARLINK-5455,PAYLOAD,2024-02-24 14:05:21,14.98327144,0.0003057,69.9986,240.6618,269.528,90.5528,1.0823e-05,3.6e-07,0.0,0 STARLINK-5455,1 55668U 23021AS  24055.58705498  .00000036  00000-0  10823-4 0  9997,2 55668  69.9986 240.6618 0003057 269.5280  90.5528 14.98327144 57827,6950.202,96.107,574.191,569.942,0.0
55668.0,STARLINK-5455,PAYLOAD,2024-02-25 12:31:14,14.98331721,0.0003065,69.9986,238.3048,269.2684,90.8123,3.9665e-05,3.8e-06,0.0,0 STARLINK-5455,1 55668U 23021AS  24056.52169173  .00000380  00000-0  39665-4 0  9993,2 55668  69.9986 238.3048 0003065 269.2684  90.8123 14.98331721 57664,6950.188,96.107,574.183,569.922,0.0
55668.0,STARLINK-5455,PAYLOAD,2024-02-25 14:07:22,14.98331793,0.0003067,69.9986,238.1365,269.2727,90.8081,3.9919e-05,3.83e-06,0.0,0 STARLINK-5455,1 55668U 23021AS  24056.58845160  .00000383  00000-0  39919-4 0  9991,2 55668  69.9986 238.1365 0003067 269.2727  90.8081 14.98331793 57970,6950.187,96.107,574.184,569.921,0.0
55668.0,STARLINK-5455,PAYLOAD,2024-02-25 22:08:02,14.98334034,0.0003077,69.9988,237.295,269.5766,90.504,5.1836e-05,5.26e-06,0.0,0 STARLINK-5455,1 55668U 23021AS  24056.92224941  .00000526  00000-0  51836-4 0  9998,2 55668  69.9988 237.2950 0003077 269.5766  90.5040 14.98334034 58029,6950.18,96.107,574.184,569.907,0.0
55668.0,STARLINK-5455,PAYLOAD,2024-02-26 12:33:15,14.9832776,0.0002999,69.9992,235.7808,272.6041,87.4775,7.302e-06,-6e-08,0.0,0 STARLINK-5455,1 55668U 23021AS  24057.52309473 -.00000006  00000-0  73020-5 0  9993,2 55668  69.9992 235.7808 0002999 272.6041  87.4775 14.98327760 57816,6950.2,96.107,574.149,569.98,0.0
55668.0,STARLINK-5455,PAYLOAD,2024-02-26 14:09:23,14.98327498,0.0003007,69.9992,235.6125,272.5019,87.5796,4.6833e-06,-3.7e-07,0.0,0 STARLINK-5455,1 55668U 23021AS  24057.58985499 -.00000037  00000-0  46833-5 0  9993,2 55668  69.9992 235.6125 0003007 272.5019  87.5796 14.98327498 58129,6950.201,96.107,574.156,569.976,0.0
55668.0,STARLINK-5455,PAYLOAD,2024-02-26 22:10:03,14.98327467,0.0002966,69.9994,234.7711,275.4795,84.6026,4.2225e-06,-4.3e-07,0.0,0 STARLINK-5455,1 55668U 23021AS  24057.92365564 -.00000043  00000-0  42225-5 0  9994,2 55668  69.9994 234.7711 0002966 275.4795  84.6026 14.98327467 58173,6950.201,96.107,574.127,570.004,0.0
55668.0,STARLINK-5455,PAYLOAD,2024-02-27 14:11:24,14.98333508,0.000299,69.9993,233.0877,273.2991,86.7826,-2.1186e-07,-9.6e-07,0.0,0 STARLINK-5455,1 55668U 23021AS  24058.59125118 -.00000096  00000-0 -21186-6 0  9990,2 55668  69.9993 233.0877 0002990 273.2991  86.7826 14.98333508 58273,6950.182,96.107,574.125,569.969,0.0
55668.0,STARLINK-5455,PAYLOAD,2024-02-27 18:59:48,14.98333181,0.0002965,69.9993,232.5827,271.2587,88.8232,2.4539e-07,-9e-07,0.0,0 STARLINK-5455,1 55668U 23021AS  24058.79153081 -.00000090  00000-0  24539-6 0  9990,2 55668  69.9993 232.5827 0002965 271.2587  88.8232 14.98333181 58005,6950.183,96.107,574.109,569.987,0.0
55668.0,STARLINK-5455,PAYLOAD,2024-02-27 22:12:04,14.98333916,0.0002946,69.9993,232.2457,270.1741,89.9081,1.0757e-05,3.5e-07,0.0,0 STARLINK-5455,1 55668U 23021AS  24058.92504972  .00000035  00000-0  10757-4 0  9997,2 55668  69.9993 232.2457 0002946 270.1741  89.9081 14.98333916 58325,6950.181,96.107,574.093,569.998,0.0
55668.0,STARLINK-5455,PAYLOAD,2024-02-28 14:13:25,14.98329527,0.0002968,69.9991,230.562,269.0723,91.0095,2.0591e-05,1.53e-06,0.0,0 STARLINK-5455,1 55668U 23021AS  24059.59265123  .00000153  00000-0  20591-4 0  9991,2 55668  69.9991 230.5620 0002968 269.0723  91.0095 14.98329527 58420,6950.194,96.107,574.122,569.997,0.0
55668.0,STARLINK-5455,PAYLOAD,2024-02-28 19:01:49,14.9832884,0.0002976,69.9992,230.0572,269.0914,90.9904,1.17e-05,4.7e-07,0.0,0 STARLINK-5455,1 55668U 23021AS  24059.79293191  .00000047  00000-0  11700-4 0  9993,2 55668  69.9992 230.0572 0002976 269.0914  90.9904 14.98328840 58157,6950.196,96.107,574.13,569.993,0.0
55668.0,STARLINK-5455,PAYLOAD,2024-02-28 20:37:57,14.98328806,0.0002978,69.9992,229.8889,269.1249,90.9569,1.0713e-05,3.5e-07,0.0,0 STARLINK-5455,1 55668U 23021AS  24059.85969198  .00000035  00000-0  10713-4 0  9997,2 55668  69.9992 229.8889 0002978 269.1249  90.9569 14.98328806 58461,6950.197,96.107,574.131,569.992,0.0
55668.0,STARLINK-5455,PAYLOAD,2024-02-29 14:15:26,14.98331108,0.0003024,69.9993,228.0374,270.1471,89.9341,-1.1092e-05,-2.25e-06,0.0,0 STARLINK-5455,1 55668U 23021AS  24060.59405093 -.00000225  00000-0 -11092-4 0  9993,2 55668  69.9993 228.0374 0003024 270.1471  89.9341 14.98331108 58571,6950.189,96.107,574.156,569.953,0.0
55668.0,STARLINK-5455,PAYLOAD,2024-02-29 20:39:58,14.98331919,0.0003045,69.9996,227.3644,269.8762,90.2048,-7.6226e-06,-1.84e-06,0.0,0 STARLINK-5455,1 55668U 23021AS  24060.86108999 -.00000184  00000-0 -76226-5 0  9993,2 55668  69.9996 227.3644 0003045 269.8762  90.2048 14.98331919 58318,6950.187,96.107,574.168,569.936,0.0
55668.0,STARLINK-5455,PAYLOAD,2024-03-01 14:17:26,14.98331481,0.0002962,69.9996,225.512,266.1705,93.9115,-1.3491e-05,-2.54e-06,0.0,0 STARLINK-5455,1 55668U 23021AS  24061.59544963 -.00000254  00000-0 -13491-4 0  9991,2 55668  69.9996 225.5120 0002962 266.1705  93.9115 14.98331481 58725,6950.188,96.107,574.112,569.995,0.0
55668.0,STARLINK-5455,PAYLOAD,2024-03-01 20:41:58,14.98333533,0.0003016,69.9996,224.8392,268.4424,91.6389,1.6208e-05,1e-06,0.0,0 STARLINK-5455,1 55668U 23021AS  24061.86248735  .00000100  00000-0  16208-4 0  9996,2 55668  69.9996 224.8392 0003016 268.4424  91.6389 14.98333533 58461,6950.182,96.107,574.143,569.951,0.0
55668.0,STARLINK-5455,PAYLOAD,2024-03-02 14:19:27,14.98330759,0.0003078,69.9998,222.9876,270.7131,89.3675,1.4429e-05,7.9e-07,0.0,0 STARLINK-5455,1 55668U 23021AS  24062.59684856  .00000079  00000-0  14429-4 0  9993,2 55668  69.9998 222.9876 0003078 270.7131  89.3675 14.98330759 58872,6950.191,96.107,574.195,569.916,0.0
55668.0,STARLINK-5455,PAYLOAD,2024-03-02 20:43:59,14.98334683,0.0003101,69.9997,222.3143,270.6577,89.4226,4.234e-05,4.12e-06,0.0,0 STARLINK-5455,1 55668U 23021AS  24062.86388473  .00000412  00000-0  42340-4 0  9993,2 55668  69.9997 222.3143 0003101 270.6577  89.4226 14.98334683 58910,6950.178,96.107,574.199,569.888,0.0
55668.0,STARLINK-5455,PAYLOAD,2024-03-03 11:09:12,14.98329775,0.0003017,69.9999,220.7995,271.0695,89.0118,-2.088e-05,-3.42e-06,0.0,0 STARLINK-5455,1 55668U 23021AS  24063.46472911 -.00000342  00000-0 -20880-4 0  9990,2 55668  69.9999 220.7995 0003017 271.0695  89.0118 14.98329775 58700,6950.194,96.107,574.155,569.962,0.0
55668.0,STARLINK-5455,PAYLOAD,2024-03-03 12:45:20,14.98329592,0.000302,69.9999,220.6312,271.0486,89.0327,-2.2445e-05,-3.61e-06,0.0,0 STARLINK-5455,1 55668U 23021AS  24063.53148920 -.00000361  00000-0 -22445-4 0  9998,2 55668  69.9999 220.6312 0003020 271.0486  89.0327 14.98329592 59018,6950.194,96.107,574.158,569.96,0.0
55668.0,STARLINK-5455,PAYLOAD,2024-03-03 20:46:00,14.98332752,0.000291,70.0003,219.7909,266.7212,93.3614,5.0189e-06,-3.3e-07,0.0,0 STARLINK-5455,1 55668U 23021AS  24063.86528547 -.00000033  00000-0  50189-5 0  9993,2 55668  70.0003 219.7909 0002910 266.7212  93.3614 14.98332752 59067,6950.184,96.107,574.072,570.027,0.0
55668.0,STARLINK-5455,PAYLOAD,2024-03-04 11:11:12,14.98366818,0.0002699,70.0,218.273,268.2726,91.8124,-0.0004084,-4.967e-05,0.0,0 STARLINK-5455,1 55668U 23021AS  24064.46611691 -.00004967  00000-0 -40840-3 0  9995,2 55668  70.0000 218.2730 0002699 268.2726  91.8124 14.98366818 58856,6950.079,96.105,573.82,570.068,0.0
55668.0,STARLINK-5455,PAYLOAD,2024-03-04 14:23:28,14.98366427,0.0002723,69.9999,217.9365,267.5428,92.5419,-0.00042427,-5.156e-05,0.0,0 STARLINK-5455,1 55668U 23021AS  24064.59963480 -.00005156  00000-0 -42427-3 0  9999,2 55668  69.9999 217.9365 0002723 267.5428  92.5419 14.98366427 59176,6950.08,96.105,573.838,570.053,0.0
55668.0,STARLINK-5455,PAYLOAD,2024-03-04 19:11:52,14.98366566,0.0002468,70.0005,217.4326,264.7561,95.3316,-0.00035015,-4.272e-05,0.0,0 STARLINK-5455,1 55668U 23021AS  24064.79990863 -.00004272  00000-0 -35015-3 0  9999,2 55668  70.0005 217.4326 0002468 264.7561  95.3316 14.98366566 59207,6950.08,96.105,573.66,570.23,0.0
55668.0,STARLINK-5455,PAYLOAD,2024-03-05 14:25:31,14.9831785,0.0002986,69.9999,215.4134,264.4955,95.5864,-0.00013939,-1.755e-05,0.0,0 STARLINK-5455,1 55668U 23021AS  24065.60105499 -.00001755  00000-0 -13939-3 0  9997,2 55668  69.9999 215.4134 0002986 264.4955  95.5864 14.98317850 59325,6950.23,96.108,574.171,570.02,0.0
